ONEWEB-0634             
1 56075U 23043AF  24125.18952080  .00000017  00000+0  11351-4 0  9994
2 56075  87.9055  53.2372 0002326  80.9311 279.2083 13.15549747 55542
ONEWEB-0635             
1 56076U 23043AG  24125.18477508  .00000096  00000+0  22012-3 0  9994
2 56076  87.9052  53.2943 0001507  74.6311 285.4986 13.15549523 55570
ONEWEB-0636             
1 56077U 23043AH  24125.17684747  .00000138  00000+0  33247-3 0  9998
2 56077  87.9050  53.2653 0001584  74.8153 285.3152 13.15549605 55551
ONEWEB-0637             
1 56078U 23043AJ  24125.55078885  .00000099  00000+0  22976-3 0  9994
2 56078  87.9054  53.1668 0001574  71.8794 288.2507 13.15551078 55629
ONEWEB-0647             
1 56079U 23043AK  24125.85026883  .00000093  00000+0  21378-3 0  9998
2 56079  87.9049  53.1269 0001594  80.1008 280.0302 13.15549606 54743
ONEWEB-0651             
1 56080U 23043AL  24125.84551220 -.00000004  00000+0 -44458-4 0  9996
2 56080  87.9051  53.1032 0001675  68.4664 291.6644 13.15550164 54741
ONEWEB-0718             
1 56081U 23043AM  24125.15624925  .00000065  00000+0  13904-3 0  9990
2 56081  87.9049  53.2269 0002598  80.0861 280.0563 13.15551160 55577
ONEWEB-0561             
1 56710U 23068A   24125.87245530  .00000126  00000+0  27698-3 0  9999
2 56710  87.9215  68.3342 0001616  97.4395 262.6922 13.20770494 48121
